{
  "type": "FeatureCollection",
  "generator": "healthsites.io OpenStreetMap Extract",
  "metadata": {
    "region": "Ondera Highlands Catchment",
    "license": "ODbL Open Database License",
    "updated": "2026-10-01"
  },
  "features": [
    {
      "type": "Feature",
      "geometry": {
        "type": "Point",
        "coordinates": [36.9512, -0.4285]
      },
      "properties": {
        "id": "healthsites:way:4819201",
        "name": "Ondera Sub-County Dispensary",
        "amenity": "clinic",
        "healthcare": "dispensary",
        "operator": "Ministry of Health",
        "opening_hours": "Mo-Fr 08:00-16:30",
        "wheelchair": "limited",
        "operational_status": "operational"
      }
    },
    {
      "type": "Feature",
      "geometry": {
        "type": "Point",
        "coordinates": [36.9820, -0.3950]
      },
      "properties": {
        "id": "healthsites:way:4819202",
        "name": "Kipkabus Hill Health Center",
        "amenity": "health_centre",
        "healthcare": "centre",
        "operator": "Faith-based Organization",
        "opening_hours": "Mo-Sa 08:00-18:00",
        "operational_status": "outreach_duty"
      }
    },
    {
      "type": "Feature",
      "geometry": {
        "type": "Point",
        "coordinates": [36.9200, -0.4610]
      },
      "properties": {
        "id": "healthsites:way:4819203",
        "name": "Ondera District Referral Hospital",
        "amenity": "hospital",
        "healthcare": "hospital",
        "emergency": "yes",
        "opening_hours": "24/7",
        "beds": 65,
        "operational_status": "operational"
      }
    }
  ]
}
